NORAD_CAT_ID,OBJECT_NAME,OBJECT_TYPE,EPOCH,MEAN_MOTION,ECCENTRICITY,INCLINATION,RA_OF_ASC_NODE,ARG_OF_PERICENTER,MEAN_ANOMALY,BSTAR,MEAN_MOTION_DOT,MEAN_MOTION_DDOT,TLE_LINE0,TLE_LINE1,TLE_LINE2,SEMIMAJOR_AXIS,PERIOD,APOGEE,PERIGEE,DECAYED
53162.0,STARLINK-4114,PAYLOAD,2022-08-09 12:00:00,15.7316301,0.0002484,53.218,293.449,17.4354,311.4147,-0.00055752,-0.00078034,0.0,0 STARLINK-4114,1 53162U 22083AG  22221.50001157 -.00078034  00000-0 -55752-3 0  9991,2 53162  53.2180 293.4490 0002484  17.4354 311.4147 15.73163010  4250,6728.001,91.535,351.537,348.194,0.0
53162.0,STARLINK-4114,PAYLOAD,2022-08-09 14:00:01,15.73133718,0.000254,53.2181,293.0371,16.8619,64.2121,-0.00029674,-0.00041949,0.0,0 STARLINK-4114,1 53162U 22083AG  22221.58334491 -.00041949  00000-0 -29674-3 0  9998,2 53162  53.2181 293.0371 0002540  16.8619  64.2121 15.73133718  1305,6728.084,91.537,351.658,348.24,0.0
53162.0,STARLINK-4114,PAYLOAD,2022-08-09 20:00:01,15.73118592,0.0002515,53.2177,291.7991,17.9135,39.7965,-0.00013727,-0.00019777,0.0,0 STARLINK-4114,1 53162U 22083AG  22221.83334491 -.00019777  00000-0 -13727-3 0  9992,2 53162  53.2177 291.7991 0002515  17.9135  39.7965 15.73118592  4309,6728.127,91.538,351.684,348.3,0.0
53162.0,STARLINK-4114,PAYLOAD,2022-08-09 22:00:00,15.73106287,0.0002471,53.218,291.3862,19.3336,150.5841,8.6645e-05,0.00011508,0.0,0 STARLINK-4114,1 53162U 22083AG  22221.91667824  .00011508  00000-0  86645-4 0  9992,2 53162  53.2180 291.3862 0002471  19.3336 150.5841 15.73106287  1306,6728.1619999999975,91.539,351.69,348.365,0.0
53162.0,STARLINK-4114,PAYLOAD,2022-08-10 04:00:00,15.73109496,0.0002384999999999,53.218,290.1485,22.5155,124.0168,0.00058913,0.00082561,0.0,0 STARLINK-4114,1 53162U 22083AG  22222.16667824  .00082561  00000-0  58913-3 0  9993,2 53162  53.2180 290.1485 0002385  22.5155 124.0168 15.73109496  4365,6728.153,91.538,351.62300000000016,348.414,0.0
53162.0,STARLINK-4114,PAYLOAD,2022-08-10 14:00:01,15.73134449,0.000272,53.2181,288.0895,18.7652,328.8137,0.00088105,0.00124539,0.0,0 STARLINK-4114,1 53162U 22083AG  22222.58334491  .00124539  00000-0  88105-3 0  9998,2 53162  53.2181 288.0895 0002720  18.7652 328.8137 15.73134449  1306,6728.081999999999,91.537,351.777,348.117,0.0
53162.0,STARLINK-4114,PAYLOAD,2022-08-10 22:00:00,15.73316479,0.0002633,53.218,286.4338,18.2086,58.2411,-0.00095365,-0.00133056,0.0,0 STARLINK-4114,1 53162U 22083AG  22222.91667824 -.00133056  00000-0 -95365-3 0  9996,2 53162  53.2180 286.4338 0002633  18.2086  58.2411 15.73316479  1302,6727.563,91.526,351.199,347.657,0.0
53162.0,STARLINK-4114,PAYLOAD,2022-08-11 04:00:00,15.73198906,0.0002601,53.2174,285.1998,24.6492,28.5079,0.00042517,0.00059476,0.0,0 STARLINK-4114,1 53162U 22083AG  22223.16667824  .00059476  00000-0  42517-3 0  9996,2 53162  53.2174 285.1998 0002601  24.6492  28.5079 15.73198906  4519,6727.898,91.533,351.51300000000015,348.01300000000015,0.0
53162.0,STARLINK-4114,PAYLOAD,2022-08-11 14:00:01,15.73232869,0.0002883999999999,53.2171,283.1417,20.701,233.6483,0.00014733,0.00020136,0.0,0 STARLINK-4114,1 53162U 22083AG  22223.58334491  .00020136  00000-0  14733-3 0  9993,2 53162  53.2171 283.1417 0002884  20.7010 233.6483 15.73232869  1305,6727.801,91.531,351.607,347.726,0.0
53162.0,STARLINK-4114,PAYLOAD,2022-08-11 20:00:01,15.73263496,0.000275,53.2167,281.9032,19.416,211.6686,-0.00051525,-0.00072526,0.0,0 STARLINK-4114,1 53162U 22083AG  22223.83334491 -.00072526  00000-0 -51525-3 0  9993,2 53162  53.2167 281.9032 0002750  19.4160 211.6686 15.73263496  4621,6727.714,91.529,351.42900000000014,347.72900000000016,0.0
53162.0,STARLINK-4114,PAYLOAD,2022-08-12 04:00:00,15.73251216,0.0002573,53.217,280.2526,18.5503,301.5016,-6.7785e-05,-0.00010147,0.0,0 STARLINK-4114,1 53162U 22083AG  22224.16667824 -.00010147  00000-0 -67785-4 0  9996,2 53162  53.2170 280.2526 0002573  18.5503 301.5016 15.73251216  4677,6727.749,91.53,351.345,347.8830000000001,0.0
53162.0,STARLINK-4114,PAYLOAD,2022-08-12 14:00:01,15.7317946,0.000288,53.2169,278.193,12.9109,148.3875,0.00067071,0.00094503,0.0,0 STARLINK-4114,1 53162U 22083AG  22224.58334491  .00094503  00000-0  67071-3 0  9996,2 53162  53.2169 278.1930 0002880  12.9109 148.3875 15.73179460  1308,6727.954000000002,91.534,351.756,347.881,0.0
53162.0,STARLINK-4114,PAYLOAD,2022-08-12 22:00:01,15.73246493,0.0002705,53.2167,276.5415,12.8017,237.5184,-0.00036153,-0.00051164,0.0,0 STARLINK-4114,1 53162U 22083AG  22224.91668981 -.00051164  00000-0 -36153-3 0  9992,2 53162  53.2167 276.5415 0002705  12.8017 237.5184 15.73246493  1304,6727.763000000001,91.53,351.44699999999995,347.80800000000005,0.0
53162.0,STARLINK-4114,PAYLOAD,2022-08-13 14:00:01,15.73158408,0.0002976,53.2158,273.2445,13.4042,54.7288,-0.00010333,-0.00015076,0.0,0 STARLINK-4114,1 53162U 22083AG  22225.58334491 -.00015076  00000-0 -10333-3 0  9996,2 53162  53.2158 273.2445 0002976  13.4042  54.7288 15.73158408  1308,6728.014,91.536,351.881,347.87699999999984,0.0
53162.0,STARLINK-4114,PAYLOAD,2022-08-13 22:00:00,15.73120788,0.0002736,53.2159,271.593,11.8317,145.1808,0.00039079,0.000544,0.0,0 STARLINK-4114,1 53162U 22083AG  22225.91667824  .00054400  00000-0  39079-3 0  9992,2 53162  53.2159 271.5930 0002736  11.8317 145.1808 15.73120788  1303,6728.121,91.538,351.827,348.145,0.0
53162.0,STARLINK-4114,PAYLOAD,2022-08-14 12:00:00,15.73242185,0.0003118,53.2162,268.708,18.7032,204.0271,0.00053381,0.00075118,0.0,0 STARLINK-4114,1 53162U 22083AG  22226.50001157  .00075118  00000-0  53381-3 0  9990,2 53162  53.2162 268.7080 0003118  18.7032 204.0271 15.73242185  5046,6727.775,91.531,351.73800000000006,347.542,0.0
53162.0,STARLINK-4114,PAYLOAD,2022-08-14 14:00:01,15.73169524,0.000308,53.2159,268.2957,12.8314,322.0967,0.00059787,0.00084033,0.0,0 STARLINK-4114,1 53162U 22083AG  22226.58334491  .00084033  00000-0  59787-3 0  9990,2 53162  53.2159 268.2957 0003080  12.8314 322.0967 15.73169524  1309,6727.982,91.535,351.9190000000001,347.775,0.0
53162.0,STARLINK-4114,PAYLOAD,2022-08-14 20:00:01,15.73244173,0.0002886,53.216,267.0569,12.7774,298.8411,-0.00032749,-0.00046428,0.0,0 STARLINK-4114,1 53162U 22083AG  22226.83334491 -.00046428  00000-0 -32749-3 0  9995,2 53162  53.2160 267.0569 0002886  12.7774 298.8411 15.73244173  5097,6727.769,91.531,351.576,347.6930000000001,0.0
53162.0,STARLINK-4114,PAYLOAD,2022-08-14 22:00:00,15.73228979,0.0002823,53.216,266.6441,12.2643,51.6007,-0.00018787,-0.00026943,0.0,0 STARLINK-4114,1 53162U 22083AG  22226.91667824 -.00026943  00000-0 -18787-3 0  9999,2 53162  53.2160 266.6441 0002823  12.2643  51.6007 15.73228979  1304,6727.813,91.531,351.577,347.778,0.0
53162.0,STARLINK-4114,PAYLOAD,2022-08-15 14:00:01,15.73170703,0.0003085,53.2153,263.3468,7.853,233.8964,2.102800000000001e-05,2.326e-05,0.0,0 STARLINK-4114,1 53162U 22083AG  22227.58334491  .00002326  00000-0  21028-4 0  9994,2 53162  53.2153 263.3468 0003085   7.8530 233.8964 15.73170703  1302,6727.979,91.535,351.9190000000001,347.76800000000014,0.0
53162.0,STARLINK-4114,PAYLOAD,2022-08-15 20:00:01,15.73175214,0.0002889,53.2155,262.108,7.825,210.6065,0.00011948,0.00016163,0.0,0 STARLINK-4114,1 53162U 22083AG  22227.83334491  .00016163  00000-0  11948-3 0  9995,2 53162  53.2155 262.1080 0002889   7.8250 210.6065 15.73175214  5256,6727.965999999999,91.535,351.775,347.88699999999994,0.0
53162.0,STARLINK-4114,PAYLOAD,2022-08-15 22:00:00,15.73153839,0.0002815,53.2154,261.6952,8.2191,322.4453,0.00051747,0.00072497,0.0,0 STARLINK-4114,1 53162U 22083AG  22227.91667824  .00072497  00000-0  51747-3 0  9996,2 53162  53.2154 261.6952 0002815   8.2191 322.4453 15.73153839  1309,6728.026999999999,91.536,351.786,347.99800000000016,0.0
53162.0,STARLINK-4114,PAYLOAD,2022-08-16 14:00:01,15.73222435,0.0003193,53.2157,258.3981,11.5754,136.9482,-0.00015151,-0.00021858,0.0,0 STARLINK-4114,1 53162U 22083AG  22228.58334491 -.00021858  00000-0 -15151-3 0  9997,2 53162  53.2157 258.3981 0003193  11.5754 136.9482 15.73222435  5379,6727.831,91.532,351.844,347.548,0.0
53162.0,STARLINK-4114,PAYLOAD,2022-08-16 22:00:00,15.73201851,0.0002948999999999,53.2159,256.7464,13.5216,223.9487,-4.6804e-05,-7.188e-05,0.0,0 STARLINK-4114,1 53162U 22083AG  22228.91667824 -.00007188  00000-0 -46804-4 0  9993,2 53162  53.2159 256.7464 0002949  13.5216 223.9487 15.73201851  1302,6727.89,91.533,351.73900000000015,347.771,0.0
53162.0,STARLINK-4114,PAYLOAD,2022-08-17 14:00:01,15.73255574,0.0003343,53.2158,253.4465,11.209,44.0905,-0.0010006,-0.00139138,0.0,0 STARLINK-4114,1 53162U 22083AG  22229.58334491 -.00139138  00000-0 -10006-2 0  9992,2 53162  53.2158 253.4465 0003343  11.2090  44.0905 15.73255574  1308,6727.736999999999,91.53,351.851,347.353,0.0
53162.0,STARLINK-4114,PAYLOAD,2022-08-17 16:00:00,15.73301132,0.000323,53.216,253.0329,11.4519,156.0727,-0.0021267,-0.00290413,0.0,0 STARLINK-4114,1 53162U 22083AG  22229.66667824 -.00290413  00000-0 -21267-2 0  9995,2 53162  53.2160 253.0329 0003230  11.4519 156.0727 15.73301132  5547,6727.607,91.527,351.645,347.2990000000001,0.0
53162.0,STARLINK-4114,PAYLOAD,2022-08-18 06:00:02,15.73202507,0.0003011,53.2174,250.1409,13.3349,219.8174,2.5899e-05,3.014e-05,0.0,0 STARLINK-4114,1 53162U 22083AG  22230.25002315  .00003014  00000-0  25899-4 0  9994,2 53162  53.2174 250.1409 0003011  13.3349 219.8174 15.73202507  5638,6727.888000000001,91.533,351.779,347.727,0.0
53162.0,STARLINK-4114,PAYLOAD,2022-08-18 14:00:01,15.73204914,0.000308,53.2173,248.492,12.0693,309.9501,2.465e-06,-2.77e-06,0.0,0 STARLINK-4114,1 53162U 22083AG  22230.58334491 -.00000277  00000-0  24650-5 0  9997,2 53162  53.2173 248.4920 0003080  12.0693 309.9501 15.73204914  1308,6727.880999999999,91.533,351.8180000000001,347.6740000000001,0.0
53162.0,STARLINK-4114,PAYLOAD,2022-08-18 22:00:00,15.73203221,0.0002988,53.2171,246.8407,13.6459,37.3101,8.7889e-06,6.11e-06,0.0,0 STARLINK-4114,1 53162U 22083AG  22230.91667824  .00000611  00000-0  87889-5 0  9997,2 53162  53.2171 246.8407 0002988  13.6459  37.3101 15.73203221  1309,6727.886,91.533,351.761,347.741,0.0
